[{"Colour":"#6A621B","EngineerID":"16c148f7-669e-4314-a4df-bbe074a80632","GroupId":"bf2315b3-5fcd-47ef-b29c-28bff3ab7091","IMEI":"359632102979439","Lat":51.48691,"Lng":-3.14696,"PostCode":"cf24 2lf","lat":51.48691,"lng":-3.14696,"name":"Abdul Basitt 360 Home"},{"Colour":"#286880","EngineerID":"2382a959-0a6d-471e-aedc-31281c849560","GroupId":"bf2315b3-5fcd-47ef-b29c-28bff3ab7091","IMEI":"352093082045377","Lat":52.955273,"Lng":-1.129325,"PostCode":"ng3 2bw","lat":52.955273,"lng":-1.129325,"name":"Adeel Bostan 360 Home"},{"Colour":"#7CAAE2","EngineerID":"fc0df53b-ba3f-4f36-943c-b98e3e4e9273","GroupId":"0a93e758-727e-4b15-95e6-8bb91637f1b4","IMEI":"359632103017064","Lat":51.602929,"Lng":-0.188721,"PostCode":"N3 2DB","lat":51.602929,"lng":-0.188721,"name":"Daniel Bunt 360 Home"},{"Colour":"#00ABAB","EngineerID":"e41ede41-6d84-4f0f-b8c2-945f7a007763","GroupId":"10de3d1f-5968-4fb9-9502-15ae5d7a6fe5","IMEI":"357544371102456","Lat":54.711566,"Lng":-1.589419,"PostCode":"DL16 6LN","lat":54.711566,"lng":-1.589419,"name":"Andrew Lightfoot 360 Home"},{"Colour":"#1271BF","EngineerID":"1fa8c3b1-ff54-447d-8c59-1111b1c8f5cf","GroupId":"b6aafc3f-ea6d-4e2f-8755-06e83c8f2b7d","IMEI":"357544371097763","Lat":51.375181,"Lng":0.557523,"PostCode":"ME7 4BA","lat":51.375181,"lng":0.557523,"name":"Antony Gardner 360 Home"},{"Colour":"#223981","EngineerID":"0a86d951-4104-4416-b3a1-f78841a3cd12","GroupId":"0a93e758-727e-4b15-95e6-8bb91637f1b4","IMEI":"359632103017247","Lat":53.756091,"Lng":-2.486921,"PostCode":"BB1 8ED","lat":53.756091,"lng":-2.486921,"name":"Aziz Bargit 360 Home"},{"Colour":"#CB9B15","EngineerID":"36eec6f4-3f91-46e8-9d11-c0a872be558a","GroupId":"bf2315b3-5fcd-47ef-b29c-28bff3ab7091","IMEI":"357544370384808","Lat":53.157465,"Lng":-1.227475,"PostCode":"NG19 7LS","lat":53.157465,"lng":-1.227475,"name":"Ben Johnson 360 Home"},{"Colour":"#75D32D","EngineerID":"a16c2c62-04e6-4949-96f9-60172c01b33d","GroupId":"bf2315b3-5fcd-47ef-b29c-28bff3ab7091","IMEI":"357544370384733","Lat":51.025207,"Lng":-3.09513,"PostCode":"TA2 7PX","lat":51.025207,"lng":-3.09513,"name":"Brett Collins 360 Home"},{"Colour":"#9D007E","EngineerID":"d0ce54d4-3232-44d5-9fc3-51cba02bf0c0","GroupId":"10de3d1f-5968-4fb9-9502-15ae5d7a6fe5","IMEI":"352093084455772","Lat":53.737128,"Lng":-1.877077,"PostCode":"HX3 5QB","lat":53.737128,"lng":-1.877077,"name":"Brian Fisher 360 Home"},{"Colour":"#184F6E","EngineerID":"ddb1e429-a1fc-4baa-b698-bc0ae6e45687","GroupId":"0a93e758-727e-4b15-95e6-8bb91637f1b4","IMEI":"359632103017288","Lat":54.689469,"Lng":-1.23407,"PostCode":"ts26 8ng","lat":54.689469,"lng":-1.23407,"name":"Brian Hunt 360 Home"},{"Colour":"#B42CBE","EngineerID":"149f28ee-8da1-48ed-91a0-f00eb9bc2a15","GroupId":"10de3d1f-5968-4fb9-9502-15ae5d7a6fe5","IMEI":"357544371102498","Lat":53.461687,"Lng":-2.493695,"PostCode":"WA3 5LT","lat":53.461687,"lng":-2.493695,"name":"Carl Appleton 360 Home"},{"Colour":"#C407FD","EngineerID":"8aef01c0-4cea-4903-b006-39206a48932a","GroupId":"bf2315b3-5fcd-47ef-b29c-28bff3ab7091","IMEI":"357544370397032","Lat":53.044087,"Lng":-2.236938,"PostCode":"ST5 8RQ","lat":53.044087,"lng":-2.236938,"name":"Carl Taylor 360 Home"},{"Colour":"#110B86","EngineerID":"8b9426bf-3366-4d32-941c-6833ba588420","GroupId":"0a93e758-727e-4b15-95e6-8bb91637f1b4","IMEI":"359632102979355","Lat":51.591485,"Lng":0.163793,"PostCode":"RM7 8QB","lat":51.591485,"lng":0.163793,"name":"Colin Smith 360 Home"},{"Colour":"#006D22","EngineerID":"4f8dd8ec-9577-48f4-babf-f60f5283677f","GroupId":"10de3d1f-5968-4fb9-9502-15ae5d7a6fe5","IMEI":"352093083814185","Lat":53.588548,"Lng":-2.256246,"PostCode":"BL9 7JF","lat":53.588548,"lng":-2.256246,"name":"Connor Mullen 360 Home"},{"Colour":"#21A8A3","EngineerID":"c0903d7b-c848-45a2-887c-aaaf32bfe80a","GroupId":"0a93e758-727e-4b15-95e6-8bb91637f1b4","IMEI":"359632103017064","Lat":53.382622,"Lng":-2.727519,"PostCode":"WA8 9LR","lat":53.382622,"lng":-2.727519,"name":"Daniel Bunt 360 Home"},{"Colour":"#D856FF","EngineerID":"2d73cd3a-51d4-427f-8e2a-116cebd2a14e","GroupId":"b6aafc3f-ea6d-4e2f-8755-06e83c8f2b7d","IMEI":"359632102958557","Lat":50.92288,"Lng":-1.364076,"PostCode":"SO18 4FE","lat":50.92288,"lng":-1.364076,"name":"Daniel Moore 360 Home"},{"Colour":"#2A70F9","EngineerID":"35b269d4-55b3-4c06-af36-4d3c178467fd","GroupId":"bf2315b3-5fcd-47ef-b29c-28bff3ab7091","IMEI":"359632102984637","Lat":51.679768,"Lng":-4.157693,"PostCode":"SA15 1TP","lat":51.679768,"lng":-4.157693,"name":"Darrel Roberts 360 Home"},{"Colour":"#4D9E63","EngineerID":"857d2e4f-4da4-4bb0-8f46-3633f2ef47e4","GroupId":"bf2315b3-5fcd-47ef-b29c-28bff3ab7091","IMEI":"352093087093489","Lat":53.260794,"Lng":-1.453255,"PostCode":"s41 8bu","lat":53.260794,"lng":-1.453255,"name":"Darrel Buttler 360 Home"},{"Colour":"#8100C3","EngineerID":"c8deba11-5218-42ec-8f78-afe193fb8279","GroupId":"10de3d1f-5968-4fb9-9502-15ae5d7a6fe5","IMEI":"359632102842736","Lat":55.849698,"Lng":-3.998415,"PostCode":"ML5 4TQ ","lat":55.849698,"lng":-3.998415,"name":"David Stewart 360 Home"},{"Colour":"#2E592C","EngineerID":"f3181bbf-e69a-4c49-b0d2-17067397c145","GroupId":"0a93e758-727e-4b15-95e6-8bb91637f1b4","IMEI":"359632102959670","Lat":53.726636,"Lng":-1.915301,"PostCode":"HX2 0NP","lat":53.726636,"lng":-1.915301,"name":"Liam Caswell 360 Home"},{"Colour":"#606A7C","EngineerID":"e7c23205-a7fb-4138-8774-be8436c6c8a5","GroupId":"b6aafc3f-ea6d-4e2f-8755-06e83c8f2b7d","IMEI":"359632102960132","Lat":51.960912,"Lng":-0.492366,"PostCode":"LU5 6LS","lat":51.960912,"lng":-0.492366,"name":"Eddie Blaauw 360 Home"},{"Colour":"#F5780F","EngineerID":"eb2f44c5-2523-4774-96a2-9e1489977538","GroupId":"b6aafc3f-ea6d-4e2f-8755-06e83c8f2b7d","IMEI":"359632102971030","Lat":51.478575,"Lng":-0.096344,"PostCode":"se5 0ad","lat":51.478575,"lng":-0.096344,"name":"Edem Lokko 360 Home"},{"Colour":"#B24B60","EngineerID":"de21be7e-efb3-49d8-a102-9a8429d93b42","GroupId":"10de3d1f-5968-4fb9-9502-15ae5d7a6fe5","IMEI":"357544370398212","Lat":53.361237,"Lng":-1.509822,"PostCode":"S11 7GH","lat":53.361237,"lng":-1.509822,"name":"Edward Sockett 360 Home"},{"Colour":"#69F879","EngineerID":"1e38d8ae-51cc-4750-959f-d44594a1e654","GroupId":"b6aafc3f-ea6d-4e2f-8755-06e83c8f2b7d","IMEI":"357544371102449","Lat":51.622396,"Lng":-0.07506,"PostCode":"n9 9tt","lat":51.622396,"lng":-0.07506,"name":"Everal Williams 360 Home"},{"Colour":"#0A0696","EngineerID":"7dc6aef8-2941-4be0-be6a-78c38c58d9dd","GroupId":"10de3d1f-5968-4fb9-9502-15ae5d7a6fe5","IMEI":"352093086967667","Lat":53.77389,"Lng":-1.547667,"PostCode":"LS11 6JU","lat":53.77389,"lng":-1.547667,"name":"Farhan Butt 360 Home"},{"Colour":"#554BEE","EngineerID":"0a0923ed-fad1-4c33-b504-6609e78abf40","GroupId":"0a93e758-727e-4b15-95e6-8bb91637f1b4","IMEI":"359633109426739","Lat":51.416942,"Lng":0.380254,"PostCode":"DA12 5DG","lat":51.416942,"lng":0.380254,"name":"Muhammad Younas 360 Home"},{"Colour":"#686A8A","EngineerID":"20264cd7-f241-4f1a-8561-417d087eaff7","GroupId":"0a93e758-727e-4b15-95e6-8bb91637f1b4","IMEI":"359632102961155","Lat":52.55875,"Lng":-1.994101,"PostCode":"ws10 0sy","lat":52.55875,"lng":-1.994101,"name":"Frank Tripicchio 360 Home"},{"Colour":"#1035B1","EngineerID":"68342ec1-9a02-4fa1-8450-8c729c95673a","GroupId":"10de3d1f-5968-4fb9-9502-15ae5d7a6fe5","IMEI":"359632102960082","Lat":55.890918,"Lng":-3.70146,"PostCode":"EH48 3LW","lat":55.890918,"lng":-3.70146,"name":"Gary Kirk 360 Home"},{"Colour":"#E618A4","EngineerID":"938afcbc-e02a-40f8-9d77-f434faea35ed","GroupId":"10de3d1f-5968-4fb9-9502-15ae5d7a6fe5","IMEI":"357544370398063","Lat":55.830382,"Lng":-4.237787,"PostCode":"G42 0NH","lat":55.830382,"lng":-4.237787,"name":"Graeme Kelly 360 Home"},{"Colour":"#60BCFF","EngineerID":"fda63202-5a7a-4ba0-89d4-137950dba228","GroupId":"0a93e758-727e-4b15-95e6-8bb91637f1b4","IMEI":"359632102979181","Lat":55.780126,"Lng":-4.14472,"PostCode":"G74 3QZ","lat":55.780126,"lng":-4.14472,"name":"Raymond Paul Matthews 360 Home"},{"Colour":"#D032E9","EngineerID":"574ca397-c457-4d12-909a-3ac7792c9849","GroupId":"b6aafc3f-ea6d-4e2f-8755-06e83c8f2b7d","IMEI":"359632102979462","Lat":51.622439,"Lng":-0.510934,"PostCode":"wd3 9yz","lat":51.622439,"lng":-0.510934,"name":"Harpreet Singh 360 Home"},{"Colour":"#67524E","EngineerID":"44bcaa80-74b7-4cb7-bbed-eb7f17b3cceb","GroupId":"b6aafc3f-ea6d-4e2f-8755-06e83c8f2b7d","IMEI":"359632102958656","Lat":51.541281,"Lng":0.087589,"PostCode":"IG11 9tp","lat":51.541281,"lng":0.087589,"name":"Humaun Rashid 360 Home"},{"Colour":"#7F9604","EngineerID":"b731d51f-3d14-49bc-991b-37367f824e39","GroupId":"b6aafc3f-ea6d-4e2f-8755-06e83c8f2b7d","IMEI":"359632102958516","Lat":51.4681,"Lng":0.126462,"PostCode":"DA7 4TS","lat":51.4681,"lng":0.126462,"name":"Izet Kakruki 360 Home"},{"Colour":"#F91111","EngineerID":"e491410f-ef4b-4d87-912a-83cfdbb3bea2","GroupId":"bf2315b3-5fcd-47ef-b29c-28bff3ab7091","IMEI":"357544371097607","Lat":52.443067,"Lng":-1.952864,"PostCode":"B29 6SB","lat":52.443067,"lng":-1.952864,"name":"Jamal Logan 360 Home"},{"Colour":"#6EA7B9","EngineerID":"ecbb5533-bb2e-4805-870f-a59132f59d10","GroupId":"10de3d1f-5968-4fb9-9502-15ae5d7a6fe5","IMEI":"357544370377414","Lat":53.445863,"Lng":-2.970525,"PostCode":"L4 5PU","lat":53.445863,"lng":-2.970525,"name":"James Edward Seales 360 Home"},{"Colour":"#2A2C02","EngineerID":"1859ce52-ad58-49fa-acac-be2a3edbf49d","GroupId":"10de3d1f-5968-4fb9-9502-15ae5d7a6fe5","IMEI":"359632102971030","Lat":53.782517,"Lng":-0.417609,"PostCode":"HU16 5QU","lat":53.782517,"lng":-0.417609,"name":"Edem Lokko 360 Home"},{"Colour":"#8053AB","EngineerID":"fe3beaa1-b32a-4aaa-a349-ed24d7fc59d4","GroupId":"bf2315b3-5fcd-47ef-b29c-28bff3ab7091","IMEI":"357544371102506","Lat":51.487905,"Lng":-2.760472,"PostCode":"bs20 7pd","lat":51.487905,"lng":-2.760472,"name":"John Hall 360 Home"},{"Colour":"#000000","EngineerID":"18648a22-5f02-41bf-a171-d2873adc9c0b","GroupId":"10de3d1f-5968-4fb9-9502-15ae5d7a6fe5","IMEI":"357544370397198","Lat":53.754294,"Lng":-2.73094,"PostCode":"PR1 0AX","lat":53.754294,"lng":-2.73094,"name":"Richard Parsons 360 Home"},{"Colour":"#7A49AE","EngineerID":"2e9c9a25-03fb-4460-b602-5a3c182d78e1","GroupId":"10de3d1f-5968-4fb9-9502-15ae5d7a6fe5","IMEI":"359632102967970","Lat":53.803375,"Lng":-3.018488,"PostCode":"FY4 4HR","lat":53.803375,"lng":-3.018488,"name":"Shaun Douglas 360 Home"},{"Colour":"#1F6C1A","EngineerID":"77b5cad7-495d-4a7d-9b68-a171c76a3fda","GroupId":"0a93e758-727e-4b15-95e6-8bb91637f1b4","IMEI":"359632102959670","Lat":53.494969,"Lng":-1.461404,"PostCode":"S74 0NP","lat":53.494969,"lng":-1.461404,"name":"Liam Caswell 360 Home"},{"Colour":"#12B20B","EngineerID":"db312214-c692-4472-8da8-65b2d2023adb","GroupId":"bf2315b3-5fcd-47ef-b29c-28bff3ab7091","IMEI":"359632102858583","Lat":52.266389,"Lng":-0.742594,"PostCode":"NN6 0PG","lat":52.266389,"lng":-0.742594,"name":"Mark Kingston 360 Home"},{"Colour":"#8F0040","EngineerID":"4206e73d-6079-4c60-9d14-5959d08d9f7e","GroupId":"10de3d1f-5968-4fb9-9502-15ae5d7a6fe5","IMEI":"357544370376309","Lat":53.454835,"Lng":-2.786009,"PostCode":"WA10 5BL","lat":53.454835,"lng":-2.786009,"name":"Matt Welch 360 Home"},{"Colour":"#37462E","EngineerID":"c154f72a-5c2e-48d1-8012-0c1586d5963d","GroupId":"6cd9956b-4b15-41b7-aa08-35078c214a26","IMEI":"359633107980828","Lat":56.003737,"Lng":-3.787391,"PostCode":"Fk27hb","lat":56.003737,"lng":-3.787391,"name":"Richard Wood 360 Home"},{"Colour":"#6E3200","EngineerID":"157c7053-aae5-47d6-b970-60d74eccafe7","GroupId":"10de3d1f-5968-4fb9-9502-15ae5d7a6fe5","IMEI":"359632102860654","Lat":53.441796,"Lng":-2.259938,"PostCode":"M21 0XX","lat":53.441796,"lng":-2.259938,"name":"Mohammed Raja 360 Home"},{"Colour":"#4F0517","EngineerID":"a73b94c0-ba3d-4d37-978d-5bd391250240","GroupId":"0a93e758-727e-4b15-95e6-8bb91637f1b4","IMEI":"359633109426739","Lat":51.885134,"Lng":-0.434777,"PostCode":"LU4 8BH","lat":51.885134,"lng":-0.434777,"name":"Muhammad Younas 360 Home"},{"Colour":"#6B37F1","EngineerID":"8da40262-9ac1-4f6f-a06f-971ec440e8ce","GroupId":"b6aafc3f-ea6d-4e2f-8755-06e83c8f2b7d","IMEI":"357544371097847","Lat":51.830265,"Lng":-0.222158,"PostCode":" AL6 9PS","lat":51.830265,"lng":-0.222158,"name":"Patrick Ball 360 Home"},{"Colour":"#6A00A9","EngineerID":"4d5d3544-9b02-44ae-bf64-b895d71467d5","GroupId":"10de3d1f-5968-4fb9-9502-15ae5d7a6fe5","IMEI":"359632102979710","Lat":53.61687,"Lng":-0.961865,"PostCode":"DN8 4DF","lat":53.61687,"lng":-0.961865,"name":"Paul Evans 360 Home"},{"Colour":"#96EDED","EngineerID":"bbe2ea2e-adb1-4422-8ad4-8b6e954f7f20","GroupId":"bf2315b3-5fcd-47ef-b29c-28bff3ab7091","IMEI":"359632102961395","Lat":52.643786,"Lng":-1.076751,"PostCode":"LE5 1EJ","lat":52.643786,"lng":-1.076751,"name":"Rafiq Patel 360 Home"},{"Colour":"#C08108","EngineerID":"d30eff50-4f11-42b8-b2c1-2b0f79e3f068","GroupId":"b6aafc3f-ea6d-4e2f-8755-06e83c8f2b7d","IMEI":"352093087096185","Lat":51.55225,"Lng":-0.269304,"PostCode":"HA9 6JP","lat":51.55225,"lng":-0.269304,"name":"Raqeeb Butt 360 Home"},{"Colour":"#FF0505","EngineerID":"fc12689c-3973-440f-b955-6353670c901b","GroupId":"10de3d1f-5968-4fb9-9502-15ae5d7a6fe5","IMEI":"359632102979181","Lat":53.335256,"Lng":-2.734026,"PostCode":"WA7 5NU","lat":53.335256,"lng":-2.734026,"name":"Raymond Paul Matthews 360 Home"},{"Colour":"#FD0808","EngineerID":"c63e3fe9-9239-4110-99bb-9e435957c862","GroupId":"b6aafc3f-ea6d-4e2f-8755-06e83c8f2b7d","IMEI":"352093083816552","Lat":51.428643,"Lng":-0.169991,"PostCode":"SW17 0ND","lat":51.428643,"lng":-0.169991,"name":"Richard Williams 360 Home"},{"Colour":"#8B8821","EngineerID":"6e86bf03-2ccb-4929-bd55-e0254727fedd","GroupId":"10de3d1f-5968-4fb9-9502-15ae5d7a6fe5","IMEI":"359633107980828","Lat":53.767813,"Lng":-1.853048,"PostCode":"bd13 2hq","lat":53.767813,"lng":-1.853048,"name":"Richard Wood 360 Home"},{"Colour":"#418C89","EngineerID":"b14d190b-3683-4546-bab9-3128848f325b","GroupId":"b6aafc3f-ea6d-4e2f-8755-06e83c8f2b7d","IMEI":"359632102961510","Lat":51.628615,"Lng":-0.749477,"PostCode":"HP11 2AG","lat":51.628615,"lng":-0.749477,"name":"Rob Alcorn 360 Home"},{"Colour":"#000000","EngineerID":"bad07f26-bb14-4a1a-a958-4419c9188b12","GroupId":"bf2315b3-5fcd-47ef-b29c-28bff3ab7091","IMEI":"357544370397040","Lat":52.99562,"Lng":-1.184104,"PostCode":"Ng6 9ep","lat":52.99562,"lng":-1.184104,"name":"Rob Murdoch 360 Home"},{"Colour":"#5B2922","EngineerID":"7b9fed38-ebd9-401d-999f-8d70afea5729","GroupId":"b6aafc3f-ea6d-4e2f-8755-06e83c8f2b7d","IMEI":"359632102960207","Lat":51.346347,"Lng":0.727692,"PostCode":"ME10 2LG","lat":51.346347,"lng":0.727692,"name":"Lee Holmes 360 Home"},{"Colour":"#E7B01C","EngineerID":"8d460f62-2207-492f-95df-85252931bdc5","GroupId":"bf2315b3-5fcd-47ef-b29c-28bff3ab7091","IMEI":"359632102858658","Lat":52.536239,"Lng":-2.135762,"PostCode":"DY3 3NG","lat":52.536239,"lng":-2.135762,"name":"Scott Weaver 360 Home"},{"Colour":"#848383","EngineerID":"445abe94-1dfe-4117-9b6f-7f4cddf42e17","GroupId":"10de3d1f-5968-4fb9-9502-15ae5d7a6fe5","IMEI":"357544371207990","Lat":53.786846,"Lng":-1.254896,"PostCode":"LS25 6AJ","lat":53.786846,"lng":-1.254896,"name":"Sean Stubbs 360 Home"},{"Colour":"#616E3D","EngineerID":"16ab1f0e-c337-484a-82f9-b27d4d1bdbb5","GroupId":"bf2315b3-5fcd-47ef-b29c-28bff3ab7091","IMEI":"352093081705930","Lat":51.563163,"Lng":-1.759367,"PostCode":"SN3 3EY","lat":51.563163,"lng":-1.759367,"name":"Shaun Davies 360 Home"},{"Colour":"#677D43","EngineerID":"371287b6-8393-4d39-8aea-aa370d8d920a","GroupId":"bf2315b3-5fcd-47ef-b29c-28bff3ab7091","IMEI":"359632102967970","PostCode":"B44 0PY","lat":52.542994,"lng":-1.872573,"name":"Shaun Douglas 360 Home"},{"Colour":"#5506F7","EngineerID":"2796fd29-1b84-4428-953a-d46fc822016b","GroupId":"b6aafc3f-ea6d-4e2f-8755-06e83c8f2b7d","IMEI":"359633108159919","Lat":51.759017,"Lng":-0.350059,"PostCode":"AL3 5TZ","lat":51.759017,"lng":-0.350059,"name":"Shazad Hussain 360 Home"},{"Colour":"#A69D71","EngineerID":"8e80aed7-dda3-4fe4-8064-faaee6bec3a0","GroupId":"10de3d1f-5968-4fb9-9502-15ae5d7a6fe5","IMEI":"357544370377505","Lat":53.359111,"Lng":-1.418582,"PostCode":"s12 2AZ","lat":53.359111,"lng":-1.418582,"name":"Simon Parker 360 Home"},{"Colour":"#107817","EngineerID":"1988a647-bdeb-4a32-b550-08c4049fc063","GroupId":"0a93e758-727e-4b15-95e6-8bb91637f1b4","IMEI":"359633109426739","Lat":55.815892,"Lng":-4.162346,"PostCode":"G72 8JU","lat":55.815892,"lng":-4.162346,"name":"Muhammad Younas 360 Home"},{"Colour":"#31B4E1","EngineerID":"3fe3fa3c-486a-4305-80b7-9e1507188405","GroupId":"0a93e758-727e-4b15-95e6-8bb91637f1b4","IMEI":"359633107980885","Lat":51.506791,"Lng":-3.200831,"PostCode":"CF14 1HX","lat":51.506791,"lng":-3.200831,"name":"Stephen Lewis 360 Home"},{"Colour":"#BB0505","EngineerID":"ac5597e3-325e-4784-98c0-bea2e2d5f4a0","GroupId":"10de3d1f-5968-4fb9-9502-15ae5d7a6fe5","IMEI":"357544371102555","Lat":55.836183,"Lng":-3.950181,"PostCode":"ML6 8HN","lat":55.836183,"lng":-3.950181,"name":"Sultan Ali 360 Home"},{"Colour":"#2BD7AC","EngineerID":"6bd8bae9-6778-4f60-a684-7a23954b5116","GroupId":"b6aafc3f-ea6d-4e2f-8755-06e83c8f2b7d","IMEI":"359632102979793","Lat":50.849434,"Lng":0.484949,"PostCode":"tn40 2uh","lat":50.849434,"lng":0.484949,"name":"Tim Deacon 360 Home"},{"Colour":"#509076","EngineerID":"982c5f8b-c89d-4294-a7b9-dd6f6163495f","GroupId":"0a93e758-727e-4b15-95e6-8bb91637f1b4","IMEI":"359632102967699","Lat":51.081096,"Lng":1.186682,"PostCode":"CT19 6AG","lat":51.081096,"lng":1.186682,"name":"Torsten Tate 360 Home"},{"Colour":"#62F6F8","EngineerID":"def85902-1249-461a-8509-06825d8e80f7","GroupId":"0a93e758-727e-4b15-95e6-8bb91637f1b4","IMEI":"359632102967491","Lat":52.208836,"Lng":-0.894068,"PostCode":"NN4 0DE","lat":52.208836,"lng":-0.894068,"name":"Zaman Hamid Shah 360 Home"}]